{"meta":{"generated_at_utc":"2026-06-14T17:35:41.643Z","source":"celestrak-active","source_url":"https://celestrak.org/NORAD/elements/gp.php?GROUP=active&FORMAT=tle","count":500,"bands":{"LEO":198,"MEO":86,"GEO":198,"HEO":18},"kinds":{"satellite":499,"debris":1}},"objects":[{"id":"38332","name":"VINASAT-2","line1":"1 38332U 12023B   26165.52197633 -.00000321  00000+0  00000+0 0  9998","line2":"2 38332   0.0161   8.4474 0002082  84.2123 129.9259  1.00271658 46634","kind":"satellite","orbitClass":"GEO"},{"id":"37216","name":"COSMO-SKYMED 4","line1":"1 37216U 10060A   26165.54079797  .00000846  00000+0  11286-3 0  9992","line2":"2 37216  97.8881 349.1790 0001405  84.2286 275.9087 14.82153011844173","kind":"satellite","orbitClass":"LEO"},{"id":"38342","name":"NIMIQ 6","line1":"1 38342U 12026A   26165.45680999 -.00000166  00000+0  00000+0 0  9993","line2":"2 38342   0.0222 298.1059 0002440 145.0172 252.9841  1.00270544 50382","kind":"satellite","orbitClass":"GEO"},{"id":"37224","name":"O/OREOS (USA 219)","line1":"1 37224U 10062C   26165.51735977  .00002184  00000+0  21177-3 0  9996","line2":"2 37224  71.9714  86.3868 0012483  68.8992 291.3512 14.93734488116246","kind":"satellite","orbitClass":"LEO"},{"id":"38352","name":"ZHONGXING-2A","line1":"1 38352U 12028A   26165.42295260 -.00000286  00000+0  00000+0 0  9999","line2":"2 38352   1.4458  83.9232 0003789  44.7889  24.5229  1.00271308 51270","kind":"satellite","orbitClass":"GEO"},{"id":"37225","name":"FASTSAT-HSV01 (USA 220)","line1":"1 37225U 10062D   26165.32858427  .00000438  00000+0  62147-4 0  9995","line2":"2 37225  71.9705 166.0755 0015111 138.9306 221.2999 14.82134876113709","kind":"satellite","orbitClass":"LEO"},{"id":"38356","name":"INTELSAT 19 (IS-19)","line1":"1 38356U 12030A   26165.50770382 -.00000049  00000+0  00000+0 0  9995","line2":"2 38356   0.0173 339.3923 0002783 112.1310 160.0537  1.00270945 50420","kind":"satellite","owner":"Commercial GEO","orbitClass":"GEO"},{"id":"37387","name":"RESOURCESAT-2","line1":"1 37387U 11015A   26165.48485103  .00000069  00000+0  51591-4 0  9998","line2":"2 37387  98.7644 232.9452 0010152 264.1937  95.8082 14.21605861785798","kind":"satellite","owner":"ISRO","orbitClass":"LEO"},{"id":"38551","name":"ECHOSTAR 17","line1":"1 38551U 12035A   26165.50670014  .00000000  00000+0  00000+0 0  9994","line2":"2 38551   0.0260  10.3375 0002072  74.1447 253.6369  1.00271396 51031","kind":"satellite","orbitClass":"GEO"},{"id":"37388","name":"YOUTHSAT","line1":"1 37388U 11015B   26165.49912463  .00000144  00000+0  78319-4 0  9995","line2":"2 37388  98.3682 139.6744 0014399 355.0600 116.2458 14.25629284787255","kind":"satellite","orbitClass":"LEO"},{"id":"38552","name":"METEOSAT-10 (MSG-3)","line1":"1 38552U 12035B   26165.33231080  .00000000  00000+0  00000+0 0  9992","line2":"2 38552   4.6648  61.0321 0001424 327.8422 353.7007  1.00276282 50823","kind":"satellite","orbitClass":"GEO"},{"id":"37389","name":"X-SAT","line1":"1 37389U 11015C   26165.48751733  .00000299  00000+0  14478-3 0  9992","line2":"2 37389  98.3501 142.6391 0014176 356.4937   3.6142 14.25206180787298","kind":"satellite","orbitClass":"LEO"},{"id":"38652","name":"SES-5","line1":"1 38652U 12036A   26165.33317747  .00000041  00000+0  00000+0 0  9994","line2":"2 38652   0.0491 313.1035 0001724 125.3552 309.0952  1.00268156 44424","kind":"satellite","owner":"Commercial GEO","orbitClass":"GEO"},{"id":"37730","name":"SJ-11-03","line1":"1 37730U 11030A   26165.54476863  .00000373  00000+0  79204-4 0  9996","line2":"2 37730  97.9330 129.6797 0009484  47.6804  44.7907 14.64332602796721","kind":"satellite","orbitClass":"LEO"},{"id":"38740","name":"INTELSAT 20 (IS-20)","line1":"1 38740U 12043A   26165.48844345 -.00000017  00000+0  00000+0 0  9999","line2":"2 38740   0.0033  60.8784 0001651 116.2799 329.9816  1.00269404 50729","kind":"satellite","owner":"Commercial GEO","orbitClass":"GEO"},{"id":"37739","name":"GLOBALSTAR M083","line1":"1 37739U 11033A   26165.31002924 -.00000092  00000+0  67229-4 0  9999","line2":"2 37739  51.9873  21.2829 0000905  61.7603 110.5543 12.62263032692581","kind":"satellite","owner":"Globalstar","orbitClass":"LEO"},{"id":"38741","name":"HYLAS 2","line1":"1 38741U 12043B   26165.46045000 -.00000252  00000+0  00000+0 0  9990","line2":"2 38741   2.4202  81.0999 0002397  26.2660 248.5932  1.00270303 50749","kind":"satellite","orbitClass":"GEO"},{"id":"37740","name":"GLOBALSTAR M088","line1":"1 37740U 11033B   26165.50079144 -.00000097  00000+0  40101-4 0  9995","line2":"2 37740  52.0223 287.1254 0000752 122.5071 315.3896 12.62268651688150","kind":"satellite","owner":"Globalstar","orbitClass":"LEO"},{"id":"38749","name":"INTELSAT 21 (IS-21)","line1":"1 38749U 12045A   26165.46331000 -.00000277  00000+0  00000+0 0  9995","line2":"2 38749   0.0168 326.2416 0001254 133.7853 271.5314  1.00271055 50496","kind":"satellite","owner":"Commercial GEO","orbitClass":"GEO"},{"id":"37741","name":"GLOBALSTAR M091","line1":"1 37741U 11033C   26165.43516060 -.00000078  00000+0  14269-3 0  9995","line2":"2 37741  51.9992 250.2945 0000369 147.4394 293.0858 12.62263864688935","kind":"satellite","owner":"Globalstar","orbitClass":"LEO"},{"id":"38778","name":"ASTRA 2F","line1":"1 38778U 12051A   26165.48029676  .00000157  00000+0  00000+0 0  9995","line2":"2 38778   0.0696 258.8646 0001375 282.8724 282.1453  1.00268437 41117","kind":"satellite","owner":"Commercial GEO","orbitClass":"GEO"},{"id":"37742","name":"GLOBALSTAR M085","line1":"1 37742U 11033D   26165.40718736 -.00000074  00000+0  16566-3 0  9995","line2":"2 37742  52.0103 201.6687 0000106 247.8325 125.6055 12.62264101689444","kind":"satellite","owner":"Globalstar","orbitClass":"LEO"},{"id":"38779","name":"GSAT-10","line1":"1 38779U 12051B   26165.49130346 -.00000157  00000+0  00000+0 0  9995","line2":"2 38779   0.0877 263.3009 0007755 183.8560  75.5194  1.00270098 50076","kind":"satellite","owner":"ISRO","orbitClass":"GEO"},{"id":"37743","name":"GLOBALSTAR M081","line1":"1 37743U 11033E   26165.35445663 -.00000071  00000+0  18401-3 0  9993","line2":"2 37743  51.9936 204.2688 0000150 119.7253 253.6013 12.62264991689581","kind":"satellite","owner":"Globalstar","orbitClass":"LEO"},{"id":"38867","name":"INTELSAT 23 (IS-23)","line1":"1 38867U 12057A   26165.46435001 -.00000277  00000+0  00000+0 0  9995","line2":"2 38867   0.0130 351.2754 0000360  84.7462 300.9054  1.00274536 49928","kind":"satellite","owner":"Commercial GEO","orbitClass":"GEO"},{"id":"37744","name":"GLOBALSTAR M089","line1":"1 37744U 11033F   26165.17106796 -.00000096  00000+0  45037-4 0  9998","line2":"2 37744  51.9904 158.9854 0000343  91.7326 348.6914 12.62267209690404","kind":"satellite","owner":"Globalstar","orbitClass":"LEO"},{"id":"38953","name":"BEIDOU-2 G6","line1":"1 38953U 12059A   26165.58429861 -.00000172  00000+0  00000+0 0  9997","line2":"2 38953   4.4136  73.5498 0009642 324.3553 159.3564  1.00272483 49889","kind":"satellite","owner":"China","orbitClass":"GEO"}]}
